ONEWEB-0229             
1 48779U 21045N   25175.82047678  .00000043  00000+0  80882-4 0  9995
2 48779  87.9057 330.4340 0001867 102.6548 257.4791 13.15547918197420
ONEWEB-0228             
1 48780U 21045P   25176.15812363 -.00000058  00000+0 -18880-3 0  9991
2 48780  87.9047 330.3414 0001956 100.3696 259.7655 13.15549243198518
ONEWEB-0232             
1 48781U 21045Q   25176.13263894 -.00000106  00000+0 -31521-3 0  9990
2 48781  87.9042 330.3432 0001856  97.3759 262.7583 13.15548274198829
ONEWEB-0231             
1 48782U 21045R   25175.88227362  .00000197  00000+0  49055-3 0  9991
2 48782  87.9034 330.4483 0002021 103.2669 256.8686 13.15547596198509
ONEWEB-0234             
1 48783U 21045S   25175.14783941 -.00000145  00000+0 -42189-3 0  9997
2 48783  87.9042 330.5539 0002151  68.9870 291.1490 13.15028570197406
ONEWEB-0238             
1 48784U 21045T   25175.84956100 -.00000013  00000+0 -67476-4 0  9995
2 48784  87.9040 330.4210 0001982  87.2822 272.8535 13.16065598198524
ONEWEB-0240             
1 48785U 21045U   25175.86564144  .00000057  00000+0  11626-3 0  9992
2 48785  87.9048 330.3940 0002326  97.8525 262.2870 13.15547641197428
ONEWEB-0246             
1 48786U 21045V   25175.40374991  .00000045  00000+0  86679-4 0  9990
2 48786  87.9051 330.4960 0001892 101.0386 259.0958 13.15547953197232
